IRIDIUM 57              
1 25273U 98019B   24250.57431807  .00001240  00000+0  42556-3 0  9995
2 25273  86.3899 264.0164 0002216  90.3784 269.7667 14.35374862384099
IRIDIUM 63              
1 25286U 98021B   24250.42707155  .00001954  00000+0  66677-3 0  9990
2 25286  86.4032 201.0071 0002551  87.7589 272.3900 14.35961119383115
IRIDIUM 69              
1 25319U 98026A   24250.39504055  .00001867  00000+0  58454-3 0  9999
2 25319  86.3997 215.1494 0001132 156.7669 203.3581 14.40209140382209
IRIDIUM 71              
1 25320U 98026B   24250.44716381  .00001799  00000+0  55960-3 0  9997
2 25320  86.4006 209.8756 0001419  25.7810 334.3460 14.40522454382730
IRIDIUM 73              
1 25344U 98032C   24250.34990450  .00002796  00000+0  70495-3 0  9998
2 25344  86.4493 167.2661 0001982  95.6478 264.4954 14.50833243389391
IRIDIUM 82              
1 25467U 98051A   24250.48184084  .00030999  00000+0  14399-2 0  9994
2 25467  86.3695 247.0852 0115720 280.7033  78.1194 15.13995372380770
