<?xml version="1.0" encoding="UTF-8"?>
<ndm xmlns:xsi="http://www.w3.org/2001/XMLSchema-instance" xsi:noNamespaceSchemaLocation="https://sanaregistry.org/r/ndmxml_unqualified/ndmxml-2.0.0-master-2.0.xsd">
<omm id="CCSDS_OMM_VERS" version="2.0">
<header><CREATION_DATE/><ORIGINATOR/></header><body><segment><metadata><OBJECT_NAME>IRIDIUM 57</OBJECT_NAME><OBJECT_ID>1998-019B</OBJECT_ID><CENTER_NAME>EARTH</CENTER_NAME><REF_FRAME>TEME</REF_FRAME><TIME_SYSTEM>UTC</TIME_SYSTEM><MEAN_ELEMENT_THEORY>SGP4</MEAN_ELEMENT_THEORY></metadata><data><meanElements><EPOCH>2024-09-06T13:47:01.081248</EPOCH><MEAN_MOTION>14.35374862</MEAN_MOTION><ECCENTRICITY>.0002216</ECCENTRICITY><INCLINATION>86.3899</INCLINATION><RA_OF_ASC_NODE>264.0164</RA_OF_ASC_NODE><ARG_OF_PERICENTER>90.3784</ARG_OF_PERICENTER><MEAN_ANOMALY>269.7667</MEAN_ANOMALY></meanElements><tleParameters><EPHEMERIS_TYPE>0</EPHEMERIS_TYPE><CLASSIFICATION_TYPE>U</CLASSIFICATION_TYPE><NORAD_CAT_ID>25273</NORAD_CAT_ID><ELEMENT_SET_NO>999</ELEMENT_SET_NO><REV_AT_EPOCH>38409</REV_AT_EPOCH><BSTAR>.42556E-3</BSTAR><MEAN_MOTION_DOT>.124E-4</MEAN_MOTION_DOT><MEAN_MOTION_DDOT>0</MEAN_MOTION_DDOT></tleParameters></data></segment></body></omm>
<omm id="CCSDS_OMM_VERS" version="2.0">
<header><CREATION_DATE/><ORIGINATOR/></header><body><segment><metadata><OBJECT_NAME>IRIDIUM 63</OBJECT_NAME><OBJECT_ID>1998-021B</OBJECT_ID><CENTER_NAME>EARTH</CENTER_NAME><REF_FRAME>TEME</REF_FRAME><TIME_SYSTEM>UTC</TIME_SYSTEM><MEAN_ELEMENT_THEORY>SGP4</MEAN_ELEMENT_THEORY></metadata><data><meanElements><EPOCH>2024-09-06T10:14:58.981920</EPOCH><MEAN_MOTION>14.35961119</MEAN_MOTION><ECCENTRICITY>.0002551</ECCENTRICITY><INCLINATION>86.4032</INCLINATION><RA_OF_ASC_NODE>201.0071</RA_OF_ASC_NODE><ARG_OF_PERICENTER>87.7589</ARG_OF_PERICENTER><MEAN_ANOMALY>272.3900</MEAN_ANOMALY></meanElements><tleParameters><EPHEMERIS_TYPE>0</EPHEMERIS_TYPE><CLASSIFICATION_TYPE>U</CLASSIFICATION_TYPE><NORAD_CAT_ID>25286</NORAD_CAT_ID><ELEMENT_SET_NO>999</ELEMENT_SET_NO><REV_AT_EPOCH>38311</REV_AT_EPOCH><BSTAR>.66677E-3</BSTAR><MEAN_MOTION_DOT>.1954E-4</MEAN_MOTION_DOT><MEAN_MOTION_DDOT>0</MEAN_MOTION_DDOT></tleParameters></data></segment></body></omm>
<omm id="CCSDS_OMM_VERS" version="2.0">
<header><CREATION_DATE/><ORIGINATOR/></header><body><segment><metadata><OBJECT_NAME>IRIDIUM 69</OBJECT_NAME><OBJECT_ID>1998-026A</OBJECT_ID><CENTER_NAME>EARTH</CENTER_NAME><REF_FRAME>TEME</REF_FRAME><TIME_SYSTEM>UTC</TIME_SYSTEM><MEAN_ELEMENT_THEORY>SGP4</MEAN_ELEMENT_THEORY></metadata><data><meanElements><EPOCH>2024-09-06T09:28:51.503520</EPOCH><MEAN_MOTION>14.40209140</MEAN_MOTION><ECCENTRICITY>.0001132</ECCENTRICITY><INCLINATION>86.3997</INCLINATION><RA_OF_ASC_NODE>215.1494</RA_OF_ASC_NODE><ARG_OF_PERICENTER>156.7669</ARG_OF_PERICENTER><MEAN_ANOMALY>203.3581</MEAN_ANOMALY></meanElements><tleParameters><EPHEMERIS_TYPE>0</EPHEMERIS_TYPE><CLASSIFICATION_TYPE>U</CLASSIFICATION_TYPE><NORAD_CAT_ID>25319</NORAD_CAT_ID><ELEMENT_SET_NO>999</ELEMENT_SET_NO><REV_AT_EPOCH>38220</REV_AT_EPOCH><BSTAR>.58454E-3</BSTAR><MEAN_MOTION_DOT>.1867E-4</MEAN_MOTION_DOT><MEAN_MOTION_DDOT>0</MEAN_MOTION_DDOT></tleParameters></data></segment></body></omm>
<omm id="CCSDS_OMM_VERS" version="2.0">
<header><CREATION_DATE/><ORIGINATOR/></header><body><segment><metadata><OBJECT_NAME>IRIDIUM 71</OBJECT_NAME><OBJECT_ID>1998-026B</OBJECT_ID><CENTER_NAME>EARTH</CENTER_NAME><REF_FRAME>TEME</REF_FRAME><TIME_SYSTEM>UTC</TIME_SYSTEM><MEAN_ELEMENT_THEORY>SGP4</MEAN_ELEMENT_THEORY></metadata><data><meanElements><EPOCH>2024-09-06T10:43:54.953184</EPOCH><MEAN_MOTION>14.40522454</MEAN_MOTION><ECCENTRICITY>.0001419</ECCENTRICITY><INCLINATION>86.4006</INCLINATION><RA_OF_ASC_NODE>209.8756</RA_OF_ASC_NODE><ARG_OF_PERICENTER>25.7810</ARG_OF_PERICENTER><MEAN_ANOMALY>334.3460</MEAN_ANOMALY></meanElements><tleParameters><EPHEMERIS_TYPE>0</EPHEMERIS_TYPE><CLASSIFICATION_TYPE>U</CLASSIFICATION_TYPE><NORAD_CAT_ID>25320</NORAD_CAT_ID><ELEMENT_SET_NO>999</ELEMENT_SET_NO><REV_AT_EPOCH>38273</REV_AT_EPOCH><BSTAR>.5596E-3</BSTAR><MEAN_MOTION_DOT>.1799E-4</MEAN_MOTION_DOT><MEAN_MOTION_DDOT>0</MEAN_MOTION_DDOT></tleParameters></data></segment></body></omm>
<omm id="CCSDS_OMM_VERS" version="2.0">
<header><CREATION_DATE/><ORIGINATOR/></header><body><segment><metadata><OBJECT_NAME>IRIDIUM 73</OBJECT_NAME><OBJECT_ID>1998-032C</OBJECT_ID><CENTER_NAME>EARTH</CENTER_NAME><REF_FRAME>TEME</REF_FRAME><TIME_SYSTEM>UTC</TIME_SYSTEM><MEAN_ELEMENT_THEORY>SGP4</MEAN_ELEMENT_THEORY></metadata><data><meanElements><EPOCH>2024-09-06T08:23:51.748800</EPOCH><MEAN_MOTION>14.50833243</MEAN_MOTION><ECCENTRICITY>.0001982</ECCENTRICITY><INCLINATION>86.4493</INCLINATION><RA_OF_ASC_NODE>167.2661</RA_OF_ASC_NODE><ARG_OF_PERICENTER>95.6478</ARG_OF_PERICENTER><MEAN_ANOMALY>264.4954</MEAN_ANOMALY></meanElements><tleParameters><EPHEMERIS_TYPE>0</EPHEMERIS_TYPE><CLASSIFICATION_TYPE>U</CLASSIFICATION_TYPE><NORAD_CAT_ID>25344</NORAD_CAT_ID><ELEMENT_SET_NO>999</ELEMENT_SET_NO><REV_AT_EPOCH>38939</REV_AT_EPOCH><BSTAR>.70495E-3</BSTAR><MEAN_MOTION_DOT>.2796E-4</MEAN_MOTION_DOT><MEAN_MOTION_DDOT>0</MEAN_MOTION_DDOT></tleParameters></data></segment></body></omm>
<omm id="CCSDS_OMM_VERS" version="2.0">
<header><CREATION_DATE/><ORIGINATOR/></header><body><segment><metadata><OBJECT_NAME>IRIDIUM 82</OBJECT_NAME><OBJECT_ID>1998-051A</OBJECT_ID><CENTER_NAME>EARTH</CENTER_NAME><REF_FRAME>TEME</REF_FRAME><TIME_SYSTEM>UTC</TIME_SYSTEM><MEAN_ELEMENT_THEORY>SGP4</MEAN_ELEMENT_THEORY></metadata><data><meanElements><EPOCH>2024-09-06T11:33:51.048576</EPOCH><MEAN_MOTION>15.13995372</MEAN_MOTION><ECCENTRICITY>.011572</ECCENTRICITY><INCLINATION>86.3695</INCLINATION><RA_OF_ASC_NODE>247.0852</RA_OF_ASC_NODE><ARG_OF_PERICENTER>280.7033</ARG_OF_PERICENTER><MEAN_ANOMALY>78.1194</MEAN_ANOMALY></meanElements><tleParameters><EPHEMERIS_TYPE>0</EPHEMERIS_TYPE><CLASSIFICATION_TYPE>U</CLASSIFICATION_TYPE><NORAD_CAT_ID>25467</NORAD_CAT_ID><ELEMENT_SET_NO>999</ELEMENT_SET_NO><REV_AT_EPOCH>38077</REV_AT_EPOCH><BSTAR>.14399E-2</BSTAR><MEAN_MOTION_DOT>.30999E-3</MEAN_MOTION_DOT><MEAN_MOTION_DDOT>0</MEAN_MOTION_DDOT></tleParameters></data></segment></body></omm>
</ndm>
